[{"OBJECT_NAME":"STARLINK-34728","OBJECT_ID":"2025-194X","EPOCH":"2026-03-09T13:15:59.838624","MEAN_MOTION":15.05662824,"ECCENTRICITY":0.00016644,"INCLINATION":97.6017,"RA_OF_ASC_NODE":284.2056,"ARG_OF_PERICENTER":91.3924,"MEAN_ANOMALY":268.7493,"EPHEMERIS_TYPE":0,"CLASSIFICATION_TYPE":"U","NORAD_CAT_ID":65455,"ELEMENT_SET_NO":999,"REV_AT_EPOCH":2962,"BSTAR":0.00039886181,"MEAN_MOTION_DOT":5.701e-5,"MEAN_MOTION_DDOT":0},{"OBJECT_NAME":"OBJECT Z","OBJECT_ID":"2017-042Z","EPOCH":"2026-03-09T21:17:53.130336","MEAN_MOTION":15.06776019,"ECCENTRICITY":0.00062541,"INCLINATION":97.3821,"RA_OF_ASC_NODE":235.9429,"ARG_OF_PERICENTER":50.1524,"MEAN_ANOMALY":310.0253,"EPHEMERIS_TYPE":0,"CLASSIFICATION_TYPE":"U","NORAD_CAT_ID":42848,"ELEMENT_SET_NO":999,"REV_AT_EPOCH":47228,"BSTAR":0.00039314781,"MEAN_MOTION_DOT":5.795e-5,"MEAN_MOTION_DDOT":0}]
